{"fetched_at":"2026-07-13T07:47:58.237Z","source":"https://celestrak.org/NORAD/elements/gp.php?GROUP=qianfan&FORMAT=JSON","constellation":"qianfan","records":[{"OBJECT_NAME":"QIANFAN-97","OBJECT_ID":"2025-233G","EPOCH":"2026-07-12T13:22:26.054400","CLASSIFICATION_TYPE":"U","MEAN_MOTION":13.51015553,"ECCENTRICITY":0.00019997,"INCLINATION":88.9987,"RA_OF_ASC_NODE":40.6228,"ARG_OF_PERICENTER":92.9353,"MEAN_ANOMALY":267.2027,"EPHEMERIS_TYPE":0,"NORAD_CAT_ID":66039,"ELEMENT_SET_NO":999,"REV_AT_EPOCH":3661,"BSTAR":0.000087571881,"MEAN_MOTION_DOT":6.9e-7,"MEAN_MOTION_DDOT":0},{"OBJECT_NAME":"QIANFAN-98","OBJECT_ID":"2025-233H","EPOCH":"2026-07-12T15:20:54.077856","CLASSIFICATION_TYPE":"U","MEAN_MOTION":13.51015376,"ECCENTRICITY":0.0002445,"INCLINATION":88.9976,"RA_OF_ASC_NODE":40.3425,"ARG_OF_PERICENTER":83.3417,"MEAN_ANOMALY":276.8013,"EPHEMERIS_TYPE":0,"NORAD_CAT_ID":66040,"ELEMENT_SET_NO":999,"REV_AT_EPOCH":3676,"BSTAR":0.000090463,"MEAN_MOTION_DOT":7e-7,"MEAN_MOTION_DDOT":0},{"OBJECT_NAME":"QIANFAN-99","OBJECT_ID":"2025-233J","EPOCH":"2026-07-12T13:40:09.424128","CLASSIFICATION_TYPE":"U","MEAN_MOTION":13.51015431,"ECCENTRICITY":0.0002341,"INCLINATION":88.9988,"RA_OF_ASC_NODE":40.6257,"ARG_OF_PERICENTER":87.3788,"MEAN_ANOMALY":272.7631,"EPHEMERIS_TYPE":0,"NORAD_CAT_ID":66041,"ELEMENT_SET_NO":999,"REV_AT_EPOCH":3661,"BSTAR":0.00010032,"MEAN_MOTION_DOT":7.7e-7,"MEAN_MOTION_DDOT":0},{"OBJECT_NAME":"QIANFAN-100","OBJECT_ID":"2025-233K","EPOCH":"2026-07-12T13:28:14.866752","CLASSIFICATION_TYPE":"U","MEAN_MOTION":13.51043341,"ECCENTRICITY":0.0001967,"INCLINATION":88.9999,"RA_OF_ASC_NODE":40.5565,"ARG_OF_PERICENTER":92.2502,"MEAN_ANOMALY":267.8875,"EPHEMERIS_TYPE":0,"NORAD_CAT_ID":66042,"ELEMENT_SET_NO":999,"REV_AT_EPOCH":3666,"BSTAR":0.000089855,"MEAN_MOTION_DOT":7e-7,"MEAN_MOTION_DDOT":0},{"OBJECT_NAME":"QIANFAN-101","OBJECT_ID":"2025-233L","EPOCH":"2026-07-12T12:59:32.150976","CLASSIFICATION_TYPE":"U","MEAN_MOTION":14.26821602,"ECCENTRICITY":0.00173624,"INCLINATION":88.9984,"RA_OF_ASC_NODE":37.6562,"ARG_OF_PERICENTER":64.8385,"MEAN_ANOMALY":295.4608,"EPHEMERIS_TYPE":0,"NORAD_CAT_ID":66043,"ELEMENT_SET_NO":999,"REV_AT_EPOCH":3824,"BSTAR":0.000074659749,"MEAN_MOTION_DOT":0.00000196,"MEAN_MOTION_DDOT":0},{"OBJECT_NAME":"QIANFAN-102","OBJECT_ID":"2025-233M","EPOCH":"2026-07-12T13:57:58.231008","CLASSIFICATION_TYPE":"U","MEAN_MOTION":13.51015336,"ECCENTRICITY":0.0002115,"INCLINATION":88.9985,"RA_OF_ASC_NODE":40.5334,"ARG_OF_PERICENTER":88.6566,"MEAN_ANOMALY":271.4827,"EPHEMERIS_TYPE":0,"NORAD_CAT_ID":66044,"ELEMENT_SET_NO":999,"REV_AT_EPOCH":3666,"BSTAR":0.000077721,"MEAN_MOTION_DOT":6.2e-7,"MEAN_MOTION_DDOT":0},{"OBJECT_NAME":"QIANFAN-103","OBJECT_ID":"2025-233N","EPOCH":"2026-07-12T15:50:32.334144","CLASSIFICATION_TYPE":"U","MEAN_MOTION":13.51016268,"ECCENTRICITY":0.0001941,"INCLINATION":88.9987,"RA_OF_ASC_NODE":40.6214,"ARG_OF_PERICENTER":92.32,"MEAN_ANOMALY":267.8174,"EPHEMERIS_TYPE":0,"NORAD_CAT_ID":66045,"ELEMENT_SET_NO":999,"REV_AT_EPOCH":3662,"BSTAR":0.000078725,"MEAN_MOTION_DOT":6.3e-7,"MEAN_MOTION_DDOT":0},{"OBJECT_NAME":"QIANFAN-104","OBJECT_ID":"2025-233P","EPOCH":"2026-07-12T14:10:02.349408","CLASSIFICATION_TYPE":"U","MEAN_MOTION":13.5102193,"ECCENTRICITY":0.0002099,"INCLINATION":88.9992,"RA_OF_ASC_NODE":40.5318,"ARG_OF_PERICENTER":86.6494,"MEAN_ANOMALY":273.4897,"EPHEMERIS_TYPE":0,"NORAD_CAT_ID":66046,"ELEMENT_SET_NO":999,"REV_AT_EPOCH":3666,"BSTAR":0.000086127,"MEAN_MOTION_DOT":6.8e-7,"MEAN_MOTION_DDOT":0},{"OBJECT_NAME":"QIANFAN-105","OBJECT_ID":"2025-233Q","EPOCH":"2026-07-12T14:21:55.012032","CLASSIFICATION_TYPE":"U","MEAN_MOTION":13.51020806,"ECCENTRICITY":0.0002107,"INCLINATION":89.0009,"RA_OF_ASC_NODE":40.3776,"ARG_OF_PERICENTER":92.3737,"MEAN_ANOMALY":267.7656,"EPHEMERIS_TYPE":0,"NORAD_CAT_ID":66047,"ELEMENT_SET_NO":999,"REV_AT_EPOCH":3677,"BSTAR":0.000078109,"MEAN_MOTION_DOT":6.2e-7,"MEAN_MOTION_DDOT":0},{"OBJECT_NAME":"QIANFAN-106","OBJECT_ID":"2025-233R","EPOCH":"2026-07-12T14:15:47.920896","CLASSIFICATION_TYPE":"U","MEAN_MOTION":13.51015319,"ECCENTRICITY":0.000238,"INCLINATION":88.9975,"RA_OF_ASC_NODE":40.5828,"ARG_OF_PERICENTER":84.7324,"MEAN_ANOMALY":275.4099,"EPHEMERIS_TYPE":0,"NORAD_CAT_ID":66048,"ELEMENT_SET_NO":999,"REV_AT_EPOCH":3661,"BSTAR":0.000084221,"MEAN_MOTION_DOT":6.6e-7,"MEAN_MOTION_DDOT":0},{"OBJECT_NAME":"QIANFAN-107","OBJECT_ID":"2025-233S","EPOCH":"2026-07-12T14:27:37.336608","CLASSIFICATION_TYPE":"U","MEAN_MOTION":13.51014809,"ECCENTRICITY":0.0001973,"INCLINATION":88.9991,"RA_OF_ASC_NODE":40.6185,"ARG_OF_PERICENTER":91.3636,"MEAN_ANOMALY":268.7741,"EPHEMERIS_TYPE":0,"NORAD_CAT_ID":66049,"ELEMENT_SET_NO":999,"REV_AT_EPOCH":3662,"BSTAR":0.00010201,"MEAN_MOTION_DOT":7.8e-7,"MEAN_MOTION_DDOT":0},{"OBJECT_NAME":"QIANFAN-108","OBJECT_ID":"2025-233T","EPOCH":"2026-07-12T14:33:31.644000","CLASSIFICATION_TYPE":"U","MEAN_MOTION":13.5101599,"ECCENTRICITY":0.0002328,"INCLINATION":88.9984,"RA_OF_ASC_NODE":40.604,"ARG_OF_PERICENTER":84.516,"MEAN_ANOMALY":275.6257,"EPHEMERIS_TYPE":0,"NORAD_CAT_ID":66050,"ELEMENT_SET_NO":999,"REV_AT_EPOCH":3662,"BSTAR":0.00010211,"MEAN_MOTION_DOT":7.8e-7,"MEAN_MOTION_DDOT":0},{"OBJECT_NAME":"QIANFAN-109","OBJECT_ID":"2026-075A","EPOCH":"2026-07-12T18:27:11.734848","CLASSIFICATION_TYPE":"U","MEAN_MOTION":13.51014085,"ECCENTRICITY":0.0002201,"INCLINATION":88.9913,"RA_OF_ASC_NODE":318.3996,"ARG_OF_PERICENTER":116.6204,"MEAN_ANOMALY":243.5173,"EPHEMERIS_TYPE":0,"NORAD_CAT_ID":68636,"ELEMENT_SET_NO":999,"REV_AT_EPOCH":1324,"BSTAR":0.000083045,"MEAN_MOTION_DOT":6.6e-7,"MEAN_MOTION_DDOT":0},{"OBJECT_NAME":"QIANFAN-110","OBJECT_ID":"2026-075B","EPOCH":"2026-07-12T18:39:00.015264","CLASSIFICATION_TYPE":"U","MEAN_MOTION":13.51015325,"ECCENTRICITY":0.0002019,"INCLINATION":88.9913,"RA_OF_ASC_NODE":318.4203,"ARG_OF_PERICENTER":102.9098,"MEAN_ANOMALY":257.2279,"EPHEMERIS_TYPE":0,"NORAD_CAT_ID":68637,"ELEMENT_SET_NO":999,"REV_AT_EPOCH":1324,"BSTAR":0.000093505,"MEAN_MOTION_DOT":7.2e-7,"MEAN_MOTION_DDOT":0},{"OBJECT_NAME":"QIANFAN-111","OBJECT_ID":"2026-075C","EPOCH":"2026-07-12T20:07:52.293216","CLASSIFICATION_TYPE":"U","MEAN_MOTION":13.51022259,"ECCENTRICITY":0.0002006,"INCLINATION":88.9912,"RA_OF_ASC_NODE":318.3734,"ARG_OF_PERICENTER":101.6832,"MEAN_ANOMALY":258.4544,"EPHEMERIS_TYPE":0,"NORAD_CAT_ID":68638,"ELEMENT_SET_NO":999,"REV_AT_EPOCH":1327,"BSTAR":0.000068744,"MEAN_MOTION_DOT":5.6e-7,"MEAN_MOTION_DDOT":0},{"OBJECT_NAME":"QIANFAN-112","OBJECT_ID":"2026-075D","EPOCH":"2026-07-12T19:14:19.512672","CLASSIFICATION_TYPE":"U","MEAN_MOTION":13.51012692,"ECCENTRICITY":0.0001976,"INCLINATION":88.9911,"RA_OF_ASC_NODE":318.386,"ARG_OF_PERICENTER":117.6286,"MEAN_ANOMALY":242.5065,"EPHEMERIS_TYPE":0,"NORAD_CAT_ID":68639,"ELEMENT_SET_NO":999,"REV_AT_EPOCH":1326,"BSTAR":0.000057141,"MEAN_MOTION_DOT":4.9e-7,"MEAN_MOTION_DDOT":0}]}
