QIANFAN-97              
1 66039U 25233G   26193.55724600  .00000069  00000+0  87572-4 0  9996
2 66039  88.9987  40.6228 0001999  92.9353 267.2027 13.51015553 36617
QIANFAN-98              
1 66040U 25233H   26193.63951479  .00000070  00000+0  90463-4 0  9998
2 66040  88.9976  40.3425 0002445  83.3417 276.8013 13.51015376 36765
QIANFAN-99              
1 66041U 25233J   26193.56955352  .00000077  00000+0  10032-3 0  9995
2 66041  88.9988  40.6257 0002341  87.3788 272.7631 13.51015431 36612
QIANFAN-100             
1 66042U 25233K   26193.56128318  .00000070  00000+0  89855-4 0  9993
2 66042  88.9999  40.5565 0001967  92.2502 267.8875 13.51043341 36669
QIANFAN-101             
1 66043U 25233L   26193.54134434  .00000196  00000+0  74660-4 0  9995
2 66043  88.9984  37.6562 0017362  64.8385 295.4608 14.26821602 38242
QIANFAN-102             
1 66044U 25233M   26193.58192397  .00000062  00000+0  77721-4 0  9995
2 66044  88.9985  40.5334 0002115  88.6566 271.4827 13.51015336 36666
QIANFAN-103             
1 66045U 25233N   26193.66009646  .00000063  00000+0  78725-4 0  9995
2 66045  88.9987  40.6214 0001941  92.3200 267.8174 13.51016268 36625
QIANFAN-104             
1 66046U 25233P   26193.59030497  .00000068  00000+0  86127-4 0  9996
2 66046  88.9992  40.5318 0002099  86.6494 273.4897 13.51021930 36663
QIANFAN-105             
1 66047U 25233Q   26193.59855338  .00000062  00000+0  78109-4 0  9991
2 66047  89.0009  40.3776 0002107  92.3737 267.7656 13.51020806 36777
QIANFAN-106             
1 66048U 25233R   26193.59430464  .00000066  00000+0  84221-4 0  9997
2 66048  88.9975  40.5828 0002380  84.7324 275.4099 13.51015319 36611
QIANFAN-107             
1 66049U 25233S   26193.60251547  .00000078  00000+0  10201-3 0  9992
2 66049  88.9991  40.6185 0001973  91.3636 268.7741 13.51014809 36627
QIANFAN-108             
1 66050U 25233T   26193.60661625  .00000078  00000+0  10211-3 0  9997
2 66050  88.9984  40.6040 0002328  84.5160 275.6257 13.51015990 36623
QIANFAN-109             
1 68636U 26075A   26193.76888582  .00000066  00000+0  83045-4 0  9997
2 68636  88.9913 318.3996 0002201 116.6204 243.5173 13.51014085 13246
QIANFAN-110             
1 68637U 26075B   26193.77708351  .00000072  00000+0  93505-4 0  9993
2 68637  88.9913 318.4203 0002019 102.9098 257.2279 13.51015325 13242
QIANFAN-111             
1 68638U 26075C   26193.83879969  .00000056  00000+0  68744-4 0  9994
2 68638  88.9912 318.3734 0002006 101.6832 258.4544 13.51022259 13273
QIANFAN-112             
1 68639U 26075D   26193.80161473  .00000049  00000+0  57141-4 0  9997
2 68639  88.9911 318.3860 0001976 117.6286 242.5065 13.51012692 13269
